[{"OBJECT_NAME":"STARLINK-31912","OBJECT_ID":"2024-084C","EPOCH":"2026-03-09T07:35:01.806432","MEAN_MOTION":15.27585524,"ECCENTRICITY":0.00010975,"INCLINATION":43.0049,"RA_OF_ASC_NODE":44.1145,"ARG_OF_PERICENTER":270.0145,"MEAN_ANOMALY":90.0581,"EPHEMERIS_TYPE":0,"CLASSIFICATION_TYPE":"U","NORAD_CAT_ID":59656,"ELEMENT_SET_NO":999,"REV_AT_EPOCH":10431,"BSTAR":3.8474178e-5,"MEAN_MOTION_DOT":7.97e-6,"MEAN_MOTION_DDOT":0},{"OBJECT_NAME":"ELECTRON KICK STAGE R\/B","OBJECT_ID":"2025-061J","EPOCH":"2026-03-09T21:50:35.145600","MEAN_MOTION":15.31602074,"ECCENTRICITY":0.00402669,"INCLINATION":97.5479,"RA_OF_ASC_NODE":52.3854,"ARG_OF_PERICENTER":150.2628,"MEAN_ANOMALY":210.0914,"EPHEMERIS_TYPE":0,"CLASSIFICATION_TYPE":"U","NORAD_CAT_ID":63359,"ELEMENT_SET_NO":999,"REV_AT_EPOCH":5306,"BSTAR":0.0006963674,"MEAN_MOTION_DOT":0.00021749,"MEAN_MOTION_DDOT":0}]
